OBJECT_NAME,OBJECT_ID,EPOCH,MEAN_MOTION,ECCENTRICITY,INCLINATION,RA_OF_ASC_NODE,ARG_OF_PERICENTER,MEAN_ANOMALY,EPHEMERIS_TYPE,CLASSIFICATION_TYPE,NORAD_CAT_ID,ELEMENT_SET_NO,REV_AT_EPOCH,BSTAR,MEAN_MOTION_DOT,MEAN_MOTION_DDOT
CONNECTA IOT-1,2024-149E,2026-06-14T04:56:34.836864,15.23519961,.00004978,97.3762,241.5473,333.5302,26.5910,0,U,60472,999,10134,.17142332E-3,.4023E-4,0
LOPEN,2024-149F,2026-06-14T04:56:13.992864,15.39611412,.00005694,97.3788,248.5501,188.5386,171.5850,0,U,60473,999,10180,.37936653E-3,.14871E-3,0
ROCK,2024-149G,2026-06-14T04:36:53.062848,15.39607761,.00008215,97.3782,248.5523,201.1000,159.0212,0,U,60474,999,10180,.40079045E-3,.15716E-3,0
CONNECTA IOT-3,2024-149H,2026-06-14T03:52:49.096704,15.23531890,.00012872,97.3739,241.2578,277.1973,82.9118,0,U,60475,999,10134,.18261165E-3,.4292E-4,0
QUBE,2024-149J,2026-06-14T04:45:30.352608,15.47071188,.00016524,97.3785,251.5742,203.6269,156.4905,0,U,60476,999,10200,.4679446E-3,.23629E-3,0
WREN-1,2024-149L,2026-06-14T05:07:00.639840,15.41452228,.00030821,97.3769,249.2944,263.0370,97.0526,0,U,60478,999,10186,.49293324E-3,.20578E-3,0
TOMORROW-S1,2024-149M,2026-06-14T04:45:49.491072,15.32681210,.00012693,97.3757,245.6796,230.8846,129.2284,0,U,60479,999,10163,.22989699E-3,.7177E-4,0
FLOCK 4BE-18,2024-149N,2026-06-14T05:24:19.804608,15.41772025,.00026612,97.3735,248.9238,248.7703,111.3260,0,U,60480,999,10185,.3971545E-3,.16731E-3,0
FLOCK 4BE-7,2024-149P,2026-06-14T03:57:16.550496,15.40204664,.00018338,97.3767,248.2076,250.7787,109.3261,0,U,60481,999,10178,.52338598E-3,.2097E-3,0
TOMORROW-S2,2024-149T,2026-06-14T05:29:50.956800,15.32711741,.00012628,97.3825,246.1964,285.6988,74.4114,0,U,60485,999,10163,.25080596E-3,.7845E-4,0
FLOCK 4BE-36,2024-149U,2026-06-14T04:45:39.226752,15.42644217,.00022338,97.3751,249.5905,269.3525,90.7466,0,U,60486,999,10189,.38749449E-3,.16804E-3,0
FLOCK 4BE-25,2024-149V,2026-06-14T05:26:16.645920,15.38769813,.00010683,97.3806,248.3564,235.0448,125.0697,0,U,60487,999,10178,.35138427E-3,.13392E-3,0
FLOCK 4BE-31,2024-149W,2026-06-14T05:34:00.556896,15.43991932,.00012232,97.3804,250.4741,262.5348,97.5761,0,U,60488,999,10192,.44269768E-3,.20109E-3,0
FLOCK 4BE-20,2024-149X,2026-06-14T04:31:29.519904,15.37987891,.00023275,97.3704,247.2050,265.7636,94.3343,0,U,60489,999,10175,.37244317E-3,.13844E-3,0
FLOCK 4BE-23,2024-149Y,2026-06-14T05:50:04.432704,15.37605762,.00019105,97.3790,247.6347,275.6649,84.4378,0,U,60490,999,10174,.35592102E-3,.13061E-3,0
FLOCK 4BE-15,2024-149Z,2026-06-13T18:00:17.904672,15.59167986,.00026022,97.3690,250.0034,246.9331,113.1651,0,U,60491,999,10189,.11391206E-2,.89898E-3,0
FLOCK 4BE-17,2024-149AA,2026-06-14T03:59:29.692896,15.39705352,.0001849,97.3780,248.5116,251.8036,108.3009,0,U,60492,999,10179,.38509718E-3,.15145E-3,0
NUSAT-50 (NANCY ROMAN),2024-149AB,2026-06-14T05:24:02.514240,15.29810764,.0003191,97.3795,246.5011,183.1298,176.9923,0,U,60493,999,10167,.328391E-3,.9409E-4,0
FLOCK 4BE-22,2024-149AC,2026-06-14T05:10:19.288992,15.41084639,.0002234,97.3742,248.7481,270.8701,89.2289,0,U,60494,999,10184,.35432702E-3,.14576E-3,0
FLOCK 4BE-34,2024-149AD,2026-06-14T05:35:00.341376,15.41081745,.00020746,97.3788,249.5859,286.2339,73.8680,0,U,60495,999,10187,.36629439E-3,.15071E-3,0
TYCHE,2024-149AE,2026-06-14T06:00:30.378240,15.25966729,.0000559,97.3760,243.1053,284.3176,75.8000,0,U,60496,999,10145,.17133168E-3,.4328E-4,0
FLOCK 4BE-32,2024-149AF,2026-06-14T04:52:31.151712,15.42071304,.00022425,97.3729,249.0978,274.8469,85.2522,0,U,60497,999,10187,.40303934E-3,.17151E-3,0
NUSAT-48 (HENRIETTA LEAVITT),2024-149AG,2026-06-14T05:07:40.319040,15.29806934,.00026825,97.3935,246.7280,289.7217,70.3734,0,U,60498,999,10168,.19014393E-4,.474E-5,0
FLOCK 4BE-30,2024-149AH,2026-06-14T05:38:05.288352,15.55873789,.00039047,97.3785,250.6549,236.8679,123.2201,0,U,60499,999,10131,.18144E-2,.127337E-2,0
NUSAT-49 (KLARA DAN VON NEUMANN),2024-149AJ,2026-06-14T04:36:19.909440,15.29901254,.00012307,97.3788,246.5000,357.3080,2.8153,0,U,60500,999,10167,.300771E-3,.8634E-4,0
FLOCK 4BE-11,2024-149AK,2026-06-14T04:47:01.364640,15.42896032,.00024436,97.3710,249.3214,274.7733,85.3235,0,U,60501,999,10189,.38662493E-3,.16909E-3,0
YAM-7,2024-149AN,2026-06-14T02:49:27.742944,15.31781654,.00021197,97.3790,245.3794,325.9314,34.1791,0,U,60504,999,10158,.25666856E-3,.7799E-4,0
FLOCK 4BE-24,2024-149AP,2026-06-14T04:27:56.225088,15.42973329,.00026296,97.3726,249.5625,290.1509,69.9455,0,U,60505,999,10190,.45555696E-3,.19999E-3,0
LUR-1,2024-149AQ,2026-06-14T04:04:45.846912,15.30071148,.00030132,97.3744,244.0197,334.8948,25.2146,0,U,60506,999,10151,.24856216E-3,.7159E-4,0
