CONNECTA IOT-1          
1 60472U 24149E   26165.20595876  .00004023  00000+0  17142-3 0  9997
2 60472  97.3762 241.5473 0000497 333.5302  26.5910 15.23519961101344
LOPEN                   
1 60473U 24149F   26165.20571751  .00014871  00000+0  37937-3 0  9990
2 60473  97.3788 248.5501 0000569 188.5386 171.5850 15.39611412101808
ROCK                    
1 60474U 24149G   26165.19228082  .00015716  00000+0  40079-3 0  9995
2 60474  97.3782 248.5523 0000821 201.1000 159.0212 15.39607761101808
CONNECTA IOT-3          
1 60475U 24149H   26165.16167936  .00004292  00000+0  18261-3 0  9998
2 60475  97.3739 241.2578 0001287 277.1973  82.9118 15.23531890101340
QUBE                    
1 60476U 24149J   26165.19826797  .00023629  00000+0  46794-3 0  9996
2 60476  97.3785 251.5742 0001652 203.6269 156.4905 15.47071188102007
WREN-1                  
1 60478U 24149L   26165.21320185  .00020578  00000+0  49293-3 0  9998
2 60478  97.3769 249.2944 0003082 263.0370  97.0526 15.41452228101865
TOMORROW-S1             
1 60479U 24149M   26165.19848948  .00007177  00000+0  22990-3 0  9993
2 60479  97.3757 245.6796 0001269 230.8846 129.2284 15.32681210101632
FLOCK 4BE-18            
1 60480U 24149N   26165.22522922  .00016731  00000+0  39715-3 0  9999
2 60480  97.3735 248.9238 0002661 248.7703 111.3260 15.41772025101859
FLOCK 4BE-7             
1 60481U 24149P   26165.16477489  .00020970  00000+0  52339-3 0  9997
2 60481  97.3767 248.2076 0001833 250.7787 109.3261 15.40204664101781
TOMORROW-S2             
1 60485U 24149T   26165.22906200  .00007845  00000+0  25081-3 0  9996
2 60485  97.3825 246.1964 0001262 285.6988  74.4114 15.32711741101632
FLOCK 4BE-36            
1 60486U 24149U   26165.19837068  .00016804  00000+0  38749-3 0  9998
2 60486  97.3751 249.5905 0002233 269.3525  90.7466 15.42644217101891
FLOCK 4BE-25            
1 60487U 24149V   26165.22658155  .00013392  00000+0  35138-3 0  9999
2 60487  97.3806 248.3564 0001068 235.0448 125.0697 15.38769813101781
FLOCK 4BE-31            
1 60488U 24149W   26165.23195089  .00020109  00000+0  44270-3 0  9994
2 60488  97.3804 250.4741 0001223 262.5348  97.5761 15.43991932101924
FLOCK 4BE-20            
1 60489U 24149X   26165.18853611  .00013844  00000+0  37244-3 0  9992
2 60489  97.3704 247.2050 0002327 265.7636  94.3343 15.37987891101756
FLOCK 4BE-23            
1 60490U 24149Y   26165.24310686  .00013061  00000+0  35592-3 0  9996
2 60490  97.3790 247.6347 0001910 275.6649  84.4378 15.37605762101748
FLOCK 4BE-15            
1 60491U 24149Z   26164.75020723  .00089898  00000+0  11391-2 0  9993
2 60491  97.3690 250.0034 0002602 246.9331 113.1651 15.59167986101892
FLOCK 4BE-17            
1 60492U 24149AA  26165.16631589  .00015145  00000+0  38510-3 0  9995
2 60492  97.3780 248.5116 0001849 251.8036 108.3009 15.39705352101790
NUSAT-50 (NANCY ROMAN)  
1 60493U 24149AB  26165.22502910  .00009409  00000+0  32839-3 0  9992
2 60493  97.3795 246.5011 0003191 183.1298 176.9923 15.29810764101674
FLOCK 4BE-22            
1 60494U 24149AC  26165.21550103  .00014576  00000+0  35433-3 0  9993
2 60494  97.3742 248.7481 0002234 270.8701  89.2289 15.41084639101840
FLOCK 4BE-34            
1 60495U 24149AD  26165.23264284  .00015071  00000+0  36629-3 0  9997
2 60495  97.3788 249.5859 0002074 286.2339  73.8680 15.41081745101871
TYCHE                   
1 60496U 24149AE  26165.25035160  .00004328  00000+0  17133-3 0  9991
2 60496  97.3760 243.1053 0000559 284.3176  75.8000 15.25966729101450
FLOCK 4BE-32            
1 60497U 24149AF  26165.20313833  .00017151  00000+0  40304-3 0  9997
2 60497  97.3729 249.0978 0002242 274.8469  85.2522 15.42071304101872
NUSAT-48 (HENRIETTA LE*)
1 60498U 24149AG  26165.21366110  .00000474  00000+0  19014-4 0  9990
2 60498  97.3935 246.7280 0002682 289.7217  70.3734 15.29806934101685
FLOCK 4BE-30            
1 60499U 24149AH  26165.23478343  .00127337  00000+0  18144-2 0  9994
2 60499  97.3785 250.6549 0003904 236.8679 123.2201 15.55873789101312
NUSAT-49 (KLARA DAN VO*)
1 60500U 24149AJ  26165.19189710  .00008634  00000+0  30077-3 0  9997
2 60500  97.3788 246.5000 0001230 357.3080   2.8153 15.29901254101676
FLOCK 4BE-11            
1 60501U 24149AK  26165.19932135  .00016909  00000+0  38662-3 0  9997
2 60501  97.3710 249.3214 0002443 274.7733  85.3235 15.42896032101897
YAM-7                   
1 60504U 24149AN  26165.11768221  .00007799  00000+0  25667-3 0  9993
2 60504  97.3790 245.3794 0002119 325.9314  34.1791 15.31781654101587
FLOCK 4BE-24            
1 60505U 24149AP  26165.18606742  .00019999  00000+0  45556-3 0  9994
2 60505  97.3726 249.5625 0002629 290.1509  69.9455 15.42973329101904
LUR-1                   
1 60506U 24149AQ  26165.16997508  .00007159  00000+0  24856-3 0  9991
2 60506  97.3744 244.0197 0003013 334.8948  25.2146 15.30071148101514
